NORAD_CAT_ID,OBJECT_NAME,OBJECT_TYPE,EPOCH,MEAN_MOTION,ECCENTRICITY,INCLINATION,RA_OF_ASC_NODE,ARG_OF_PERICENTER,MEAN_ANOMALY,BSTAR,MEAN_MOTION_DOT,MEAN_MOTION_DDOT,TLE_LINE0,TLE_LINE1,TLE_LINE2,SEMIMAJOR_AXIS,PERIOD,APOGEE,PERIGEE,DECAYED
53571.0,STARLINK-4584,PAYLOAD,2022-12-21 12:04:32,15.08812566,0.0001553,53.2169,285.1861,57.0203,303.0938,-0.00017312,-3.04e-05,0.0,0 STARLINK-4584,1 53571U 22101AW  22355.50315859 -.00003040  00000-0 -17312-3 0  9996,2 53571  53.2169 285.1861 0001553  57.0203 303.0938 15.08812566 19874,6917.964,95.439,540.904,538.755,0.0
53571.0,STARLINK-4584,PAYLOAD,2022-12-21 18:26:05,15.08813352,0.0001188,53.2161,283.993,59.235,300.8759,-0.00022743,-3.903e-05,0.0,0 STARLINK-4584,1 53571U 22101AW  22355.76812270 -.00003903  00000-0 -22743-3 0  9995,2 53571  53.2161 283.9930 0001188  59.2350 300.8759 15.08813352 19229,6917.962,95.439,540.649,539.005,0.0
53571.0,STARLINK-4584,PAYLOAD,2022-12-22 03:58:23,15.08839356,0.0001494,53.2167,282.2114,55.7142,304.3992,-0.00016153,-2.858e-05,0.0,0 STARLINK-4584,1 53571U 22101AW  22356.16554614 -.00002858  00000-0 -16153-3 0  9991,2 53571  53.2167 282.2114 0001494  55.7142 304.3992 15.08839356 19287,6917.882,95.438,540.781,538.714,0.0
53571.0,STARLINK-4584,PAYLOAD,2022-12-22 11:55:18,15.08841947,0.0001546,53.2165,280.7244,59.4602,300.6542,-3.4891e-05,-8.43e-06,0.0,0 STARLINK-4584,1 53571U 22101AW  22356.49674143 -.00000843  00000-0 -34891-4 0  9999,2 53571  53.2165 280.7244 0001546  59.4602 300.6542 15.08841947 20025,6917.874,95.437,540.809,538.67,0.0
53571.0,STARLINK-4584,PAYLOAD,2022-12-23 11:46:06,15.08822802,0.0001489,53.2165,276.2642,59.4484,300.6654,9.3548e-05,1.201e-05,0.0,0 STARLINK-4584,1 53571U 22101AW  22357.49035223  .00001201  00000-0  93548-4 0  9991,2 53571  53.2165 276.2642 0001489  59.4484 300.6654 15.08822802 20170,6917.933000000001,95.439,540.828,538.768,0.0
53571.0,STARLINK-4584,PAYLOAD,2022-12-23 18:07:38,15.08829359,0.0001459,53.2158,275.0743,63.0319,297.0822,8.3579e-05,1.042e-05,0.0,0 STARLINK-4584,1 53571U 22101AW  22357.75531127  .00001042  00000-0  83579-4 0  9990,2 53571  53.2158 275.0743 0001459  63.0319 297.0822 15.08829359 19523,6917.913000000001,95.438,540.7869999999998,538.769,0.0
53571.0,STARLINK-4584,PAYLOAD,2022-12-24 03:39:56,15.08843277,0.0001543,53.2167,273.2903,59.3316,300.7828,0.00013538,1.867e-05,0.0,0 STARLINK-4584,1 53571U 22101AW  22358.15274178  .00001867  00000-0  13538-3 0  9997,2 53571  53.2167 273.2903 0001543  59.3316 300.7828 15.08843277 19589,6917.87,95.437,540.803,538.668,0.0
53571.0,STARLINK-4584,PAYLOAD,2022-12-24 11:36:52,15.08844205,0.0001536,53.2166,271.8035,59.6292,300.4852,8.2505e-05,1.025e-05,0.0,0 STARLINK-4584,1 53571U 22101AW  22358.48394181  .00001025  00000-0  82505-4 0  9997,2 53571  53.2166 271.8035 0001536  59.6292 300.4852 15.08844205 20326,6917.868,95.437,540.795,538.67,0.0
53571.0,STARLINK-4584,PAYLOAD,2022-12-25 03:30:46,15.08806282,0.0001309,53.2161,268.8306,58.7724,301.3396,-0.00026589,-4.513e-05,0.0,0 STARLINK-4584,1 53571U 22101AW  22359.14637461 -.00004513  00000-0 -26589-3 0  9998,2 53571  53.2161 268.8306 0001309  58.7724 301.3396 15.08806282 19735,6917.983,95.44,540.754,538.943,0.0
53571.0,STARLINK-4584,PAYLOAD,2022-12-25 11:27:42,15.08810697,0.0001455,53.2172,267.345,61.9286,298.1853,-0.00022284,-3.83e-05,0.0,0 STARLINK-4584,1 53571U 22101AW  22359.47757635 -.00003830  00000-0 -22284-3 0  9999,2 53571  53.2172 267.3450 0001455  61.9286 298.1853 15.08810697 19783,6917.97,95.439,540.842,538.828,0.0
53571.0,STARLINK-4584,PAYLOAD,2022-12-25 22:35:22,15.08835028,0.0001455,53.2165,265.2627,61.1498,298.964,-3.1025e-05,-7.82e-06,0.0,0 STARLINK-4584,1 53571U 22101AW  22359.94123835 -.00000782  00000-0 -31025-4 0  9997,2 53571  53.2165 265.2627 0001455  61.1498 298.9640 15.08835028 19850,6917.896,95.438,540.7669999999998,538.754,0.0
53571.0,STARLINK-4584,PAYLOAD,2022-12-26 11:18:27,15.088433600000002,0.0001584,53.2168,262.8817,68.9096,291.2066,-2.7517e-05,-7.26e-06,0.0,0 STARLINK-4584,1 53571U 22101AW  22360.47115323 -.00000726  00000-0 -27517-4 0  9999,2 53571  53.2168 262.8817 0001584  68.9096 291.2066 15.08843360 19934,6917.87,95.437,540.831,538.639,0.0
53571.0,STARLINK-4584,PAYLOAD,2022-12-26 22:26:07,15.08855977,0.0001281,53.2173,260.8021,59.9003,300.2116,0.00014659,2.047e-05,0.0,0 STARLINK-4584,1 53571U 22101AW  22360.93481332  .00002047  00000-0  14659-3 0  9994,2 53571  53.2173 260.8021 0001281  59.9003 300.2116 15.08855977 20001,6917.831999999999,95.437,540.5830000000002,538.81,0.0
53571.0,STARLINK-4584,PAYLOAD,2022-12-27 03:12:17,15.08838609,0.0001471,53.2169,259.9096,67.3604,292.7544,0.00040316,6.134e-05,0.0,0 STARLINK-4584,1 53571U 22101AW  22361.13353256  .00006134  00000-0  40316-3 0  9990,2 53571  53.2169 259.9096 0001471  67.3604 292.7544 15.08838609 20034,6917.885,95.438,540.7669999999998,538.732,0.0
53571.0,STARLINK-4584,PAYLOAD,2022-12-27 23:52:18,15.08892172,0.0001633,53.2174,256.0417,62.8596,297.2563,-0.00048601,-8.026e-05,0.0,0 STARLINK-4584,1 53571U 22101AW  22361.99465371 -.00008026  00000-0 -48601-3 0  9995,2 53571  53.2174 256.0417 0001633  62.8596 297.2563 15.08892172 20165,6917.721,95.434,540.716,538.456,0.0
53571.0,STARLINK-4584,PAYLOAD,2022-12-29 04:29:16,15.08834609,0.0001595,53.2164,250.6903,75.7793,284.3376,-0.0002006999999999,-3.48e-05,0.0,0 STARLINK-4584,1 53571U 22101AW  22363.18699176 -.00003480  00000-0 -20070-3 0  9999,2 53571  53.2164 250.6903 0001595  75.7793 284.3376 15.08834609 20343,6917.897,95.438,540.865,538.658,0.0
53571.0,STARLINK-4584,PAYLOAD,2022-12-29 09:15:26,15.08829696,0.0001592,53.2165,249.7973,61.2767,298.8384,-0.00033505,-5.615e-05,0.0,0 STARLINK-4584,1 53571U 22101AW  22363.38572002 -.00005615  00000-0 -33505-3 0  9998,2 53571  53.2165 249.7973 0001592  61.2767 298.8384 15.08829696 20370,6917.9119999999975,95.438,540.878,538.6759999999998,0.0
53571.0,STARLINK-4584,PAYLOAD,2022-12-30 01:09:17,15.08826581,0.0001561,53.2161,246.8249,63.6762,296.439,-0.00010947,-2.029e-05,0.0,0 STARLINK-4584,1 53571U 22101AW  22364.04811991 -.00002029  00000-0 -10947-3 0  9996,2 53571  53.2161 246.8249 0001561  63.6762 296.4390 15.08826581 20479,6917.920999999999,95.438,540.866,538.707,0.0
53571.0,STARLINK-4584,PAYLOAD,2022-12-30 09:06:12,15.08834147,0.0001623,53.2162,245.3379,59.1882,300.927,-5.9168e-05,-1.229e-05,0.0,0 STARLINK-4584,1 53571U 22101AW  22364.37931578 -.00001229  00000-0 -59168-4 0  9996,2 53571  53.2162 245.3379 0001623  59.1882 300.9270 15.08834147 20521,6917.898,95.438,540.886,538.641,0.0
53571.0,STARLINK-4584,PAYLOAD,2022-12-31 02:35:26,15.08843702,0.0001356,53.2163,242.0666,70.3092,289.8047,0.00019974,2.893e-05,0.0,0 STARLINK-4584,1 53571U 22101AW  22365.10794423  .00002893  00000-0  19974-3 0  9990,2 53571  53.2163 242.0666 0001356  70.3092 289.8047 15.08843702 20632,6917.869000000002,95.437,540.672,538.7959999999998,0.0
53571.0,STARLINK-4584,PAYLOAD,2022-12-31 08:56:58,15.08858173,0.0001521999999999,53.2158,240.8778,71.1152,289.0005,0.00013324,1.834e-05,0.0,0 STARLINK-4584,1 53571U 22101AW  22365.37289667  .00001834  00000-0  13324-3 0  9995,2 53571  53.2158 240.8778 0001522  71.1152 289.0005 15.08858173 20675,6917.825,95.436,540.743,538.637,0.0
53571.0,STARLINK-4584,PAYLOAD,2023-01-01 00:50:51,15.08833975,0.0001489,53.216,237.9042,68.8569,291.2582,8.2577e-05,1.026e-05,0.0,0 STARLINK-4584,1 53571U 22101AW  23001.03531368  .00001026  00000-0  82577-4 0  9994,2 53571  53.2160 237.9042 0001489  68.8569 291.2582 15.08833975 20775,6917.899,95.438,540.794,538.734,0.0
53571.0,STARLINK-4584,PAYLOAD,2023-01-01 15:09:20,15.08829922,0.0001621,53.2154,235.2283,71.2114,288.9054,-0.0001296,-2.349e-05,0.0,0 STARLINK-4584,1 53571U 22101AW  23001.63148702 -.00002349  00000-0 -12960-3 0  9995,2 53571  53.2154 235.2283 0001621  71.2114 288.9054 15.08829922 21559,6917.911,95.438,540.898,538.655,0.0
53571.0,STARLINK-4584,PAYLOAD,2023-01-01 21:30:53,15.08826303,0.000166,53.2153,234.0385,68.5723,291.5446,-0.00014843,-2.649e-05,0.0,0 STARLINK-4584,1 53571U 22101AW  23001.89645184 -.00002649  00000-0 -14843-3 0  9994,2 53571  53.2153 234.0385 0001660  68.5723 291.5446 15.08826303 20909,6917.922,95.438,540.936,538.639,0.0
53571.0,STARLINK-4584,PAYLOAD,2023-01-02 08:38:35,15.08835673,0.000149,53.2161,231.9565,70.367,289.7483,-0.00020515,-3.551e-05,0.0,0 STARLINK-4584,1 53571U 22101AW  23002.36013014 -.00003551  00000-0 -20515-3 0  9994,2 53571  53.2161 231.9565 0001490  70.3670 289.7483 15.08835673 20974,6917.894,95.438,540.789,538.7280000000002,0.0
53571.0,STARLINK-4584,PAYLOAD,2023-01-02 21:21:40,15.08834957,0.0001535,53.2158,229.577,72.4348,287.6812,-9.366e-05,-1.778e-05,0.0,0 STARLINK-4584,1 53571U 22101AW  23002.89004836 -.00001778  00000-0 -93660-4 0  9995,2 53571  53.2158 229.5770 0001535  72.4348 287.6812 15.08834957 21749,6917.896,95.438,540.823,538.6990000000002,0.0
53571.0,STARLINK-4584,PAYLOAD,2023-01-03 08:29:22,15.08834938,0.000157,53.2158,227.4955,69.7152,290.4009,1.791e-05,-3e-08,0.0,0 STARLINK-4584,1 53571U 22101AW  23003.35372699 -.00000003  00000-0  17910-4 0  9995,2 53571  53.2158 227.4955 0001570  69.7152 290.4009 15.08834938 21123,6917.896,95.438,540.847,538.675,0.0
53571.0,STARLINK-4584,PAYLOAD,2023-01-04 00:23:13,15.08834457,0.0001583,53.2155,224.5218,71.3125,288.8039,0.000168,2.386e-05,0.0,0 STARLINK-4584,1 53571U 22101AW  23004.01612572  .00002386  00000-0  16800-3 0  9997,2 53571  53.2155 224.5218 0001583  71.3125 288.8039 15.08834457 21910,6917.897,95.438,540.857,538.6669999999998,0.0
53571.0,STARLINK-4584,PAYLOAD,2023-01-05 00:13:59,15.08844135,0.00016,53.2154,220.0621,66.4084,293.7076,6.7112e-05,7.8e-06,0.0,0 STARLINK-4584,1 53571U 22101AW  23005.00972177  .00000780  00000-0  67112-4 0  9996,2 53571  53.2154 220.0621 0001600  66.4084 293.7076 15.08844135 21377,6917.868,95.437,540.84,538.626,0.0
